{
  "type": "FeatureCollection",
  "features": [
    {
      "type": "Feature",
      "properties": {
        "norad_id": 42989,
        "name": "SKYSAT-C9",
        "group": "resource",
        "lat": 7.945164425794462,
        "lon": -48.651108789095545,
        "alt_km": 463.02861778257284,
        "timestamp": "2025-12-25T22:42:16.653962+00:00",
        "meta_object_name": "SKYSAT-C9",
        "meta_object_id": "2017-068C",
        "meta_epoch": "2025-12-25T07:53:29.378400",
        "meta_mean_motion": 15.36363881,
        "meta_eccentricity": 0.0010242,
        "meta_inclination": 97.4193,
        "meta_ra_of_asc_node": 129.6845,
        "meta_arg_of_pericenter": 47.2855,
        "meta_mean_anomaly": 312.925,
        "meta_ephemeris_type": 0,
        "meta_classification_type": "U",
        "meta_norad_cat_id": 42989,
        "meta_element_set_no": 999,
        "meta_rev_at_epoch": 45601,
        "meta_bstar": 0.00039021,
        "meta_mean_motion_dot": 0.00013787,
        "meta_mean_motion_ddot": 0,
        "tle_line1": "1 42989U 17068C   25359.32881225  .00013787  00000+0  39021-3 0  9992",
        "tle_line2": "2 42989  97.4193 129.6845 0010242  47.2855 312.9250 15.36363881456014"
      },
      "geometry": {
        "type": "Point",
        "coordinates": [
          -48.651108789095545,
          7.945164425794462
        ]
      }
    },
    {
      "type": "Feature",
      "properties": {
        "norad_id": 42990,
        "name": "SKYSAT-C8",
        "group": "resource",
        "lat": -7.013575966967913,
        "lon": 130.92603424274762,
        "alt_km": 470.1832490112947,
        "timestamp": "2025-12-25T22:42:16.653973+00:00",
        "meta_object_name": "SKYSAT-C8",
        "meta_object_id": "2017-068D",
        "meta_epoch": "2025-12-25T14:54:12.989952",
        "meta_mean_motion": 15.33202976,
        "meta_eccentricity": 9.35e-05,
        "meta_inclination": 97.4288,
        "meta_ra_of_asc_node": 129.6797,
        "meta_arg_of_pericenter": 266.8482,
        "meta_mean_anomaly": 93.2653,
        "meta_ephemeris_type": 0,
        "meta_classification_type": "U",
        "meta_norad_cat_id": 42990,
        "meta_element_set_no": 999,
        "meta_rev_at_epoch": 45568,
        "meta_bstar": 0.00038527,
        "meta_mean_motion_dot": 0.00012287,
        "meta_mean_motion_ddot": 0,
        "tle_line1": "1 42990U 17068D   25359.62098368  .00012287  00000+0  38527-3 0  9999",
        "tle_line2": "2 42990  97.4288 129.6797 0000935 266.8482  93.2653 15.33202976455682"
      },
      "geometry": {
        "type": "Point",
        "coordinates": [
          130.92603424274762,
          -7.013575966967913
        ]
      }
    },
    {
      "type": "Feature",
      "properties": {
        "norad_id": 42991,
        "name": "SKYSAT-C7",
        "group": "resource",
        "lat": -0.12703407005260053,
        "lon": -48.97986894955846,
        "alt_km": 475.678114651897,
        "timestamp": "2025-12-25T22:42:16.653983+00:00",
        "meta_object_name": "SKYSAT-C7",
        "meta_object_id": "2017-068E",
        "meta_epoch": "2025-12-25T15:39:14.167584",
        "meta_mean_motion": 15.32597834,
        "meta_eccentricity": 0.0006817,
        "meta_inclination": 97.4295,
        "meta_ra_of_asc_node": 130.7418,
        "meta_arg_of_pericenter": 15.9528,
        "meta_mean_anomaly": 344.1927,
        "meta_ephemeris_type": 0,
        "meta_classification_type": "U",
        "meta_norad_cat_id": 42991,
        "meta_element_set_no": 999,
        "meta_rev_at_epoch": 45575,
        "meta_bstar": 0.00039345,
        "meta_mean_motion_dot": 0.00012321,
        "meta_mean_motion_ddot": 0,
        "tle_line1": "1 42991U 17068E   25359.65224731  .00012321  00000+0  39345-3 0  9996",
        "tle_line2": "2 42991  97.4295 130.7418 0006817  15.9528 344.1927 15.32597834455752"
      },
      "geometry": {
        "type": "Point",
        "coordinates": [
          -48.97986894955846,
          -0.12703407005260053
        ]
      }
    },
    {
      "type": "Feature",
      "properties": {
        "norad_id": 42992,
        "name": "SKYSAT-C6",
        "group": "resource",
        "lat": -75.03215623582093,
        "lon": -77.76626783293412,
        "alt_km": 480.6927103921862,
        "timestamp": "2025-12-25T22:42:16.653993+00:00",
        "meta_object_name": "SKYSAT-C6",
        "meta_object_id": "2017-068F",
        "meta_epoch": "2025-12-25T15:18:53.410752",
        "meta_mean_motion": 15.31751977,
        "meta_eccentricity": 0.0004748,
        "meta_inclination": 97.4329,
        "meta_ra_of_asc_node": 131.1556,
        "meta_arg_of_pericenter": 47.0891,
        "meta_mean_anomaly": 313.0748,
        "meta_ephemeris_type": 0,
        "meta_classification_type": "U",
        "meta_norad_cat_id": 42992,
        "meta_element_set_no": 999,
        "meta_rev_at_epoch": 45573,
        "meta_bstar": 0.00038469,
        "meta_mean_motion_dot": 0.00011725,
        "meta_mean_motion_ddot": 0,
        "tle_line1": "1 42992U 17068F   25359.63811818  .00011725  00000+0  38469-3 0  9996",
        "tle_line2": "2 42992  97.4329 131.1556 0004748  47.0891 313.0748 15.31751977455732"
      },
      "geometry": {
        "type": "Point",
        "coordinates": [
          -77.76626783293412,
          -75.03215623582093
        ]
      }
    },
    {
      "type": "Feature",
      "properties": {
        "norad_id": 43111,
        "name": "CARTOSAT-2F",
        "group": "resource",
        "lat": 43.23323703007924,
        "lon": -115.58472305541314,
        "alt_km": 503.6519558556556,
        "timestamp": "2025-12-25T22:42:16.654003+00:00",
        "meta_object_name": "CARTOSAT-2F",
        "meta_object_id": "2018-004A",
        "meta_epoch": "2025-12-25T17:21:53.663328",
        "meta_mean_motion": 15.19246559,
        "meta_eccentricity": 0.0001536,
        "meta_inclination": 97.4293,
        "meta_ra_of_asc_node": 57.1497,
        "meta_arg_of_pericenter": 107.9122,
        "meta_mean_anomaly": 252.228,
        "meta_ephemeris_type": 0,
        "meta_classification_type": "U",
        "meta_norad_cat_id": 43111,
        "meta_element_set_no": 999,
        "meta_rev_at_epoch": 44099,
        "meta_bstar": 0.00021953,
        "meta_mean_motion_dot": 4.559e-05,
        "meta_mean_motion_ddot": 0,
        "tle_line1": "1 43111U 18004A   25359.72353777  .00004559  00000+0  21953-3 0  9993",
        "tle_line2": "2 43111  97.4293  57.1497 0001536 107.9122 252.2280 15.19246559440990"
      },
      "geometry": {
        "type": "Point",
        "coordinates": [
          -115.58472305541314,
          43.23323703007924
        ]
      }
    },
    {
      "type": "Feature",
      "properties": {
        "norad_id": 43259,
        "name": "GAOFEN-1 02",
        "group": "resource",
        "lat": 29.93468679157689,
        "lon": 53.04747152530326,
        "alt_km": 640.4642321450874,
        "timestamp": "2025-12-25T22:42:16.654014+00:00",
        "meta_object_name": "GAOFEN-1 02",
        "meta_object_id": "2018-031A",
        "meta_epoch": "2025-12-25T17:41:18.171168",
        "meta_mean_motion": 14.7644276,
        "meta_eccentricity": 0.0002643,
        "meta_inclination": 98.0784,
        "meta_ra_of_asc_node": 57.5297,
        "meta_arg_of_pericenter": 169.6913,
        "meta_mean_anomaly": 190.4351,
        "meta_ephemeris_type": 0,
        "meta_classification_type": "U",
        "meta_norad_cat_id": 43259,
        "meta_element_set_no": 999,
        "meta_rev_at_epoch": 41710,
        "meta_bstar": 0.00021418,
        "meta_mean_motion_dot": 1.438e-05,
        "meta_mean_motion_ddot": 0,
        "tle_line1": "1 43259U 18031A   25359.73701587  .00001438  00000+0  21418-3 0  9992",
        "tle_line2": "2 43259  98.0784  57.5297 0002643 169.6913 190.4351 14.76442760417103"
      },
      "geometry": {
        "type": "Point",
        "coordinates": [
          53.04747152530326,
          29.93468679157689
        ]
      }
    },
    {
      "type": "Feature",
      "properties": {
        "norad_id": 43260,
        "name": "GAOFEN-1 03",
        "group": "resource",
        "lat": 32.97022857722927,
        "lon": -117.09919802351031,
        "alt_km": 638.837498056153,
        "timestamp": "2025-12-25T22:42:16.654024+00:00",
        "meta_object_name": "GAOFEN-1 03",
        "meta_object_id": "2018-031B",
        "meta_epoch": "2025-12-25T18:47:23.480160",
        "meta_mean_motion": 14.76462846,
        "meta_eccentricity": 0.0001749,
        "meta_inclination": 98.078,
        "meta_ra_of_asc_node": 57.4517,
        "meta_arg_of_pericenter": 251.9369,
        "meta_mean_anomaly": 108.165,
        "meta_ephemeris_type": 0,
        "meta_classification_type": "U",
        "meta_norad_cat_id": 43260,
        "meta_element_set_no": 999,
        "meta_rev_at_epoch": 41710,
        "meta_bstar": 0.00014551,
        "meta_mean_motion_dot": 9.61e-06,
        "meta_mean_motion_ddot": 0,
        "tle_line1": "1 43260U 18031B   25359.78291065  .00000961  00000+0  14551-3 0  9994",
        "tle_line2": "2 43260  98.0780  57.4517 0001749 251.9369 108.1650 14.76462846417106"
      },
      "geometry": {
        "type": "Point",
        "coordinates": [
          -117.09919802351031,
          32.97022857722927
        ]
      }
    }
  ]
}